PIESAT A                
1 56153U 23047A   26068.57334807  .00005852  00000+0  32318-3 0  9994
2 56153  97.5034 257.1452 0002367  89.9230 270.2273 15.14302818162729
STARLINK-30790          
1 58127U 23162K   26068.22212918  .00039164  00000+0  21713-2 0  9994
2 58127  42.9975 130.2155 0010343  31.6175 328.5291 15.13105037132295
